ONEWEB-0456             
1 51646U 22012AA  24226.78646898 -.00000402  00000+0 -11867-2 0  9993
2 51646  87.8970 170.0011 0001761  81.5577 278.5750 13.10370054121283
ONEWEB-0457             
1 51647U 22012AB  24226.91596697  .00000666  00000+0  18713-2 0  9997
2 51647  87.8985 170.0026 0002311  81.1732 278.9657 13.10372562121306
ONEWEB-0458             
1 51648U 22012AC  24226.78481225 -.00000301  00000+0 -89831-3 0  9991
2 51648  87.8980 170.0450 0002064  73.8189 286.3165 13.10370520121244
ONEWEB-0461             
1 51649U 22012AD  24226.81369526  .00000124  00000+0  28711-3 0  9996
2 51649  87.9184 139.7631 0002051  75.8533 284.2826 13.17648580125343
ONEWEB-0463             
1 51650U 22012AE  24226.49217151  .00000061  00000+0  12511-3 0  9999
2 51650  87.9189 139.8761 0002079  75.1568 284.9794 13.17651002125081
ONEWEB-0464             
1 51651U 22012AF  24226.85785854 -.00000270  00000+0 -80909-3 0  9990
2 51651  87.8982 170.0192 0001622  78.1472 281.9837 13.10368160121272
ONEWEB-0468             
1 51652U 22012AG  24226.78814271 -.00001955  00000+0 -56386-2 0  9991
2 51652  87.8982 170.0257 0001532  79.7357 280.3943 13.10360846121245
ONEWEB-0473             
1 51653U 22012AH  24226.92591758  .00000262  00000+0  71378-3 0  9997
2 51653  87.8984 170.0019 0001979  75.7411 284.3936 13.10370374121261
ONEWEB-0474             
1 51654U 22012AJ  24226.91762591  .00000621  00000+0  17426-2 0  9994
2 51654  87.8977 169.9949 0001863  73.3950 286.7382 13.10371831121256
ONEWEB-0475             
1 51655U 22012AK  24226.73128384 -.00000170  00000+0 -47110-3 0  9996
2 51655  87.9185 139.8080 0001816  65.6452 294.4869 13.17650553125135
ONEWEB-0490             
1 54113U 22138A   24226.33635712  .00000047  00000+0  85195-4 0  9998
2 54113  87.9097  78.8320 0001645  83.3296 276.8024 13.19723947 88080
ONEWEB-0492             
1 54114U 22138B   24226.89234964  .00000008  00000+0 -13035-4 0  9996
2 54114  87.9100  78.7270 0001449  83.0173 277.1124 13.19724601 88164
ONEWEB-0495             
1 54115U 22138C   24226.87023701  .00000140  00000+0  31800-3 0  9995
2 54115  87.9102  78.7429 0001160  62.6501 297.4749 13.19725150 88147
ONEWEB-0497             
1 54116U 22138D   24226.88287207  .00000072  00000+0  14741-3 0  9999
2 54116  87.9096  78.7261 0001664  84.3102 275.8220 13.19726407 88130
ONEWEB-0499             
1 54117U 22138E   24226.86548479 -.00000002  00000+0 -38187-4 0  9995
2 54117  87.9100  78.7332 0001896  68.9619 291.1717 13.19727436 88140
ONEWEB-0500             
1 54118U 22138F   24226.86865997  .00000091  00000+0  19397-3 0  9990
2 54118  87.9100  78.7269 0001701  86.0801 274.0527 13.19725067 88157
ONEWEB-0501             
1 54119U 22138G   24226.82286404  .00000065  00000+0  13007-3 0  9990
2 54119  87.9099  78.7337 0001322  70.2986 289.8289 13.19725137 88123
ONEWEB-0502             
1 54120U 22138H   24226.35373311 -.00000011  00000+0 -60553-4 0  9996
2 54120  87.9095  78.8160 0001625  73.2385 286.8926 13.19726106 88085
ONEWEB-0503             
1 54121U 22138J   24226.94921473  .00000183  00000+0  42536-3 0  9998
2 54121  87.9097  78.7033 0002159  76.1828 283.9545 13.19725767 88158
ONEWEB-0504             
1 54122U 22138K   24226.86076320  .00000150  00000+0  34293-3 0  9997
2 54122  87.9099  78.7282 0001745  71.7271 288.4052 13.19725486 88151
ONEWEB-0505             
1 54123U 22138L   24226.85759942  .00000140  00000+0  31648-3 0  9995
2 54123  87.9098  78.7230 0001362  60.2180 299.9088 13.19725230 88132
ONEWEB-0506             
1 54124U 22138M   24226.83233085  .00000106  00000+0  23332-3 0  9992
2 54124  87.9097  78.7250 0001594  78.5447 281.5865 13.19725640 88123
ONEWEB-0507             
1 54125U 22138N   24226.85286447  .00000149  00000+0  33958-3 0  9997
2 54125  87.9106  78.7471 0001437  80.8761 279.2535 13.19725821 88175
ONEWEB-0508             
1 54126U 22138P   24226.84970769  .00000132  00000+0  29828-3 0  9997
2 54126  87.9100  78.7394 0001257  80.4042 279.7233 13.19725034 88156
ONEWEB-0509             
1 54127U 22138Q   24226.29371462  .00000055  00000+0  10535-3 0  9991
2 54127  87.9096  78.8337 0001656  79.0618 281.0701 13.19725913 88056
ONEWEB-0510             
1 54128U 22138R   24226.94147934  .00000040  00000+0  66451-4 0  9992
2 54128  87.9187  48.1569 0001991 103.6173 256.5182 13.20768963 90548
ONEWEB-0511             
1 54129U 22138S   24226.82127128  .00000009  00000+0 -99950-5 0  9990
2 54129  87.9096  78.7316 0001925  73.6027 286.5317 13.19725826 88154
ONEWEB-0512             
1 54130U 22138T   24226.58592468  .00000105  00000+0  22890-3 0  9991
2 54130  87.9102  78.7992 0001492  68.3673 291.7618 13.19725476 88097
ONEWEB-0513             
1 54131U 22138U   24226.85996082  .00000138  00000+0  31248-3 0  9995
2 54131  87.9105  78.7373 0001658  64.1883 295.9421 13.19726042 88015
ONEWEB-0514             
1 54132U 22138V   24226.82916972  .00000044  00000+0  78420-4 0  9993
2 54132  87.9096  78.7370 0001826  82.9427 277.1913 13.19724477 88143
ONEWEB-0515             
1 54133U 22138W   24226.92885316  .00000170  00000+0  38712-3 0  9991
2 54133  87.9188  48.1385 0002307 115.6277 244.5095 13.20772788 90563
ONEWEB-0516             
1 54134U 22138X   24226.95552222  .00000018  00000+0  12948-4 0  9997
2 54134  87.9105  78.7267 0001643  84.4520 275.6800 13.19726604 88163
ONEWEB-0517             
1 54135U 22138Y   24226.85918022  .00000094  00000+0  20200-3 0  9994
2 54135  87.9100  78.7269 0002089  74.9100 285.2264 13.19724255 88154
ONEWEB-0518             
1 54136U 22138Z   24226.95395395  .00000122  00000+0  27265-3 0  9998
2 54136  87.9106  78.7248 0001822  80.6695 279.4644 13.19724665 88168
ONEWEB-0519             
1 54137U 22138AA  24226.82759263  .00000032  00000+0  46999-4 0  9999
2 54137  87.9096  78.7284 0001687  68.9706 291.1607 13.19725154 88151
ONEWEB-0520             
1 54138U 22138AB  24226.86233838  .00000078  00000+0  16209-3 0  9999
2 54138  87.9096  78.7244 0001374  73.2761 286.8522 13.19725419 88141
ONEWEB-0521             
1 54139U 22138AC  24226.81969535  .00000017  00000+0  89107-5 0  9997
2 54139  87.9095  78.7250 0001991  81.2778 278.8580 13.19725579 88085
ONEWEB-0522             
1 54140U 22138AD  24226.95079266  .00000048  00000+0  88089-4 0  9998
2 54140  87.9095  78.7004 0001664  85.4473 274.6850 13.19724706 88141
ONEWEB-0523             
1 54141U 22138AE  24226.91623724  .00000114  00000+0  24775-3 0  9994
2 54141  87.9189  48.1698 0002598 101.2125 258.9301 13.20771876 90561
ONEWEB-0524             
1 54142U 22138AF  24226.90518877  .00000076  00000+0  15516-3 0  9996
2 54142  87.9185  48.1750 0002005 123.2957 236.8368 13.20772355 90568
ONEWEB-0525             
1 54143U 22138AG  24226.89392894  .00000071  00000+0  14506-3 0  9997
2 54143  87.9098  78.7224 0001521  75.7008 284.4293 13.19725970 88154
ONEWEB-0526             
1 54144U 22138AH  24226.85127125  .00000011  00000+0 -43525-5 0  9997
2 54144  87.9098  78.7251 0001647  83.3879 276.7441 13.19723504 88122
ONEWEB-0529             
1 54145U 22138AJ  24226.85443622  .00000150  00000+0  34239-3 0  9994
2 54145  87.9106  78.7436 0001468  78.1603 281.9694 13.19727130 88145
ONEWEB-0531             
1 54146U 22138AK  24226.73946403  .00000072  00000+0  14458-3 0  9991
2 54146  87.9187  48.1995 0002554 111.2826 248.8580 13.20773488 90541
ONEWEB-0535             
1 54147U 22138AL  24226.88760994  .00000072  00000+0  14844-3 0  9996
2 54147  87.9096  78.7156 0001961  90.1753 269.9604 13.19726115 88163
ONEWEB-0536             
1 54148U 22138AM  24226.95411975  .00000034  00000+0  51108-4 0  9990
2 54148  87.9187  48.2052 0002816  98.4218 261.7234 13.20771611 90568
ONEWEB-0527             
1 54642U 22166A   24226.91157612  .00000167  00000+0  37337-3 0  9995
2 54642  87.9311  17.8297 0001789  98.5585 261.5751 13.21824477 82726
ONEWEB-0528             
1 54643U 22166B   24226.91788735  .00000088  00000+0  18099-3 0  9998
2 54643  87.9317  17.8171 0001626  95.4269 264.7050 13.21825908 82737
ONEWEB-0539             
1 54644U 22166C   24226.95415862  .00000027  00000+0  34805-4 0  9998
2 54644  87.9318  17.8130 0001818  88.9982 271.1360 13.21824960 82739
ONEWEB-0540             
1 54645U 22166D   24226.94862634 -.00000138  00000+0 -36576-3 0  9992
2 54645  87.9310  17.8290 0001839  86.3054 273.8290 13.21822652 82720
ONEWEB-0542             
1 54646U 22166E   24226.88791969  .00000042  00000+0  70726-4 0  9996
2 54646  87.9317  17.8255 0002155  85.2516 274.8864 13.21828275 82727
ONEWEB-0545             
1 54647U 22166F   24226.93049800  .00000106  00000+0  22412-3 0  9992
2 54647  87.9306  17.8321 0001866  79.3398 280.7946 13.21823856 82693
ONEWEB-0580             
1 54648U 22166G   24226.90369531 -.00000540  00000+0 -13398-2 0  9992
2 54648  87.9307  17.8108 0002139  84.0406 276.0972 13.21817358 82737
ONEWEB-0582             
1 54649U 22166H   24226.94627034 -.00000005  00000+0 -43176-4 0  9997
2 54649  87.9310  17.8376 0002388  83.8219 276.3186 13.21824052 82711
ONEWEB-0583             
1 54650U 22166J   24226.95731030  .00000241  00000+0  55189-3 0  9998
2 54650  87.9309  17.8348 0001818  91.1687 268.9655 13.21823788 82722
ONEWEB-0584             
1 54651U 22166K   24226.90211396  .00000077  00000+0  15467-3 0  9994
2 54651  87.9314  17.8143 0001996  86.7691 273.3672 13.21824421 82706
ONEWEB-0585             
1 54652U 22166L   24226.92735104  .00000091  00000+0  18860-3 0  9991
2 54652  87.9311  17.8191 0001816  97.5803 262.5537 13.21824894 82718
ONEWEB-0586             
1 54653U 22166M   24226.93996653  .00000008  00000+0 -13150-4 0  9998
2 54653  87.9309  17.8281 0001911  87.8147 272.3206 13.21826605 82719
ONEWEB-0587             
1 54654U 22166N   24226.94942558  .00000010  00000+0 -65678-5 0  9991
2 54654  87.9308  17.7806 0001626 102.7514 257.3801 13.21826471 82871
